{
    "week": 295,
    "satellites": [
        {
            "Name": "GSAT0208 (GALILEO 11)",
            "Line1": "1 41175U 15079B   24334.96522619  .00000050  00000+0  00000+0 0  9999",
            "Line2": "2 41175  55.5042 116.7565 0001374   1.8309 358.1342  1.70474333 55578",
            "SatelliteNumber": "41175",
            "Classification": "U",
            "LaunchYear": "15",
            "LaunchNumber": "079",
            "PieceOfLaunch": "B",
            "EpochYear": "24",
            "EpochDay": 334.96522619,
            "FirstDerivativeMeanMotion": 5e-07,
            "SecondDerivativeMeanMotion": "00000+0",
            "BSTAR": "00000+0",
            "SetNumber": "999",
            "Inclination": 55.5042,
            "RAAN": 116.7565,
            "Eccentricity": 0.0001374,
            "ArgumentOfPerigee": 1.8309,
            "MeanAnomaly": 358.1342,
            "MeanMotion": 1.70474333,
            "RevolutionNumber": "5557"
        },
        {
            "Name": "GSAT0211 (GALILEO 14)",
            "Line1": "1 41549U 16030A   24336.84831341  .00000032  00000+0  00000+0 0  9996",
            "Line2": "2 41549  55.2922 237.1646 0003720 358.6723   1.4074  1.70473044 53087",
            "SatelliteNumber": "41549",
            "Classification": "U",
            "LaunchYear": "16",
            "LaunchNumber": "030",
            "PieceOfLaunch": "A",
            "EpochYear": "24",
            "EpochDay": 336.84831341,
            "FirstDerivativeMeanMotion": 3.2e-07,
            "SecondDerivativeMeanMotion": "00000+0",
            "BSTAR": "00000+0",
            "SetNumber": "999",
            "Inclination": 55.2922,
            "RAAN": 237.1646,
            "Eccentricity": 0.000372,
            "ArgumentOfPerigee": 358.6723,
            "MeanAnomaly": 1.4074,
            "MeanMotion": 1.70473044,
            "RevolutionNumber": "5308"
        },
        {
            "Name": "GSAT0210 (GALILEO 13)",
            "Line1": "1 41550U 16030B   24336.51968641  .00000030  00000+0  00000+0 0  9994",
            "Line2": "2 41550  55.2916 237.1720 0001234 246.7317 113.3341  1.70473488 53058",
            "SatelliteNumber": "41550",
            "Classification": "U",
            "LaunchYear": "16",
            "LaunchNumber": "030",
            "PieceOfLaunch": "B",
            "EpochYear": "24",
            "EpochDay": 336.51968641,
            "FirstDerivativeMeanMotion": 3e-07,
            "SecondDerivativeMeanMotion": "00000+0",
            "BSTAR": "00000+0",
            "SetNumber": "999",
            "Inclination": 55.2916,
            "RAAN": 237.172,
            "Eccentricity": 0.0001234,
            "ArgumentOfPerigee": 246.7317,
            "MeanAnomaly": 113.3341,
            "MeanMotion": 1.70473488,
            "RevolutionNumber": "5305"
        },
        {
            "Name": "GSAT0207 (GALILEO 15)",
            "Line1": "1 41859U 16069A   24336.79860915  .00000047  00000+0  00000+0 0  9991",
            "Line2": "2 41859  55.1723 116.6691 0001842 309.3343  50.6089  1.70474452 49816",
            "SatelliteNumber": "41859",
            "Classification": "U",
            "LaunchYear": "16",
            "LaunchNumber": "069",
            "PieceOfLaunch": "A",
            "EpochYear": "24",
            "EpochDay": 336.79860915,
            "FirstDerivativeMeanMotion": 4.7e-07,
            "SecondDerivativeMeanMotion": "00000+0",
            "BSTAR": "00000+0",
            "SetNumber": "999",
            "Inclination": 55.1723,
            "RAAN": 116.6691,
            "Eccentricity": 0.0001842,
            "ArgumentOfPerigee": 309.3343,
            "MeanAnomaly": 50.6089,
            "MeanMotion": 1.70474452,
            "RevolutionNumber": "4981"
        },
        {
            "Name": "GSAT0212 (GALILEO 16)",
            "Line1": "1 41860U 16069B   24336.65272017  .00000047  00000+0  00000+0 0  9998",
            "Line2": "2 41860  55.1702 116.6692 0001614  30.9131 329.0561  1.70474610 50068",
            "SatelliteNumber": "41860",
            "Classification": "U",
            "LaunchYear": "16",
            "LaunchNumber": "069",
            "PieceOfLaunch": "B",
            "EpochYear": "24",
            "EpochDay": 336.65272017,
            "FirstDerivativeMeanMotion": 4.7e-07,
            "SecondDerivativeMeanMotion": "00000+0",
            "BSTAR": "00000+0",
            "SetNumber": "999",
            "Inclination": 55.1702,
            "RAAN": 116.6692,
            "Eccentricity": 0.0001614,
            "ArgumentOfPerigee": 30.9131,
            "MeanAnomaly": 329.0561,
            "MeanMotion": 1.7047461,
            "RevolutionNumber": "5006"
        },
        {
            "Name": "GSAT0213 (GALILEO 17)",
            "Line1": "1 41861U 16069C   24337.02099558  .00000047  00000+0  00000+0 0  9998",
            "Line2": "2 41861  55.1724 116.6661 0002158 265.2894  94.6452  1.70474923 50063",
            "SatelliteNumber": "41861",
            "Classification": "U",
            "LaunchYear": "16",
            "LaunchNumber": "069",
            "PieceOfLaunch": "C",
            "EpochYear": "24",
            "EpochDay": 337.02099558,
            "FirstDerivativeMeanMotion": 4.7e-07,
            "SecondDerivativeMeanMotion": "00000+0",
            "BSTAR": "00000+0",
            "SetNumber": "999",
            "Inclination": 55.1724,
            "RAAN": 116.6661,
            "Eccentricity": 0.0002158,
            "ArgumentOfPerigee": 265.2894,
            "MeanAnomaly": 94.6452,
            "MeanMotion": 1.70474923,
            "RevolutionNumber": "5006"
        },
        {
            "Name": "GSAT0214 (GALILEO 18)",
            "Line1": "1 41862U 16069D   24337.16642993  .00000047  00000+0  00000+0 0  9991",
            "Line2": "2 41862  55.1710 116.6553 0001215 260.0359  99.9095  1.70474714 50060",
            "SatelliteNumber": "41862",
            "Classification": "U",
            "LaunchYear": "16",
            "LaunchNumber": "069",
            "PieceOfLaunch": "D",
            "EpochYear": "24",
            "EpochDay": 337.16642993,
            "FirstDerivativeMeanMotion": 4.7e-07,
            "SecondDerivativeMeanMotion": "00000+0",
            "BSTAR": "00000+0",
            "SetNumber": "999",
            "Inclination": 55.171,
            "RAAN": 116.6553,
            "Eccentricity": 0.0001215,
            "ArgumentOfPerigee": 260.0359,
            "MeanAnomaly": 99.9095,
            "MeanMotion": 1.70474714,
            "RevolutionNumber": "5006"
        },
        {
            "Name": "GSAT0215 (GALILEO 19)",
            "Line1": "1 43055U 17079A   24332.96367047  .00000002  00000+0  00000+0 0  9997",
            "Line2": "2 43055  55.2710 237.0910 0001527 318.3517  41.6904  1.70473830 43334",
            "SatelliteNumber": "43055",
            "Classification": "U",
            "LaunchYear": "17",
            "LaunchNumber": "079",
            "PieceOfLaunch": "A",
            "EpochYear": "24",
            "EpochDay": 332.96367047,
            "FirstDerivativeMeanMotion": 2e-08,
            "SecondDerivativeMeanMotion": "00000+0",
            "BSTAR": "00000+0",
            "SetNumber": "999",
            "Inclination": 55.271,
            "RAAN": 237.091,
            "Eccentricity": 0.0001527,
            "ArgumentOfPerigee": 318.3517,
            "MeanAnomaly": 41.6904,
            "MeanMotion": 1.7047383,
            "RevolutionNumber": "4333"
        },
        {
            "Name": "GSAT0216 (GALILEO 20)",
            "Line1": "1 43056U 17079B   24336.18820561  .00000028  00000+0  00000+0 0  9999",
            "Line2": "2 43056  55.2700 237.0023 0002851 309.3034  50.7484  1.70473930 43373",
            "SatelliteNumber": "43056",
            "Classification": "U",
            "LaunchYear": "17",
            "LaunchNumber": "079",
            "PieceOfLaunch": "B",
            "EpochYear": "24",
            "EpochDay": 336.18820561,
            "FirstDerivativeMeanMotion": 2.8e-07,
            "SecondDerivativeMeanMotion": "00000+0",
            "BSTAR": "00000+0",
            "SetNumber": "999",
            "Inclination": 55.27,
            "RAAN": 237.0023,
            "Eccentricity": 0.0002851,
            "ArgumentOfPerigee": 309.3034,
            "MeanAnomaly": 50.7484,
            "MeanMotion": 1.7047393,
            "RevolutionNumber": "4337"
        },
        {
            "Name": "GSAT0217 (GALILEO 21)",
            "Line1": "1 43057U 17079C   24336.40877019  .00000030  00000+0  00000+0 0  9998",
            "Line2": "2 43057  55.2681 236.9946 0002787 344.1464  15.9234  1.70473692 43399",
            "SatelliteNumber": "43057",
            "Classification": "U",
            "LaunchYear": "17",
            "LaunchNumber": "079",
            "PieceOfLaunch": "C",
            "EpochYear": "24",
            "EpochDay": 336.40877019,
            "FirstDerivativeMeanMotion": 3e-07,
            "SecondDerivativeMeanMotion": "00000+0",
            "BSTAR": "00000+0",
            "SetNumber": "999",
            "Inclination": 55.2681,
            "RAAN": 236.9946,
            "Eccentricity": 0.0002787,
            "ArgumentOfPerigee": 344.1464,
            "MeanAnomaly": 15.9234,
            "MeanMotion": 1.70473692,
            "RevolutionNumber": "4339"
        }
    ]
}